[
  {
    "OBJECT_NAME": "STARLINK-34058",
    "OBJECT_ID": "25092Q",
    "EPOCH": "2025-11-11T04:14:54.991104",
    "MEAN_MOTION": 15.27606271,
    "ECCENTRICITY": 9.09e-05,
    "INCLINATION": 43.0014,
    "RA_OF_ASC_NODE": 121.5036,
    "ARG_OF_PERICENTER": 311.1539,
    "MEAN_ANOMALY": 48.9235,
    "EPHEMERIS_TYPE": 0,
    "CLASSIFICATION_TYPE": "U",
    "NORAD_CAT_ID": 63818,
    "ELEMENT_SET_NO": 999,
    "REV_AT_EPOCH": 3054,
    "BSTAR": 0.0015115,
    "MEAN_MOTION_DOT": 0.000416,
    "MEAN_MOTION_DDOT": 0.0,
    "TLE_LINE1": "1 63818U 25092Q   25315.17702536  .00041600  00000+0  15115-2 0  9996",
    "TLE_LINE2": "2 63818  43.0014 121.5036 0000909 311.1539  48.9235 15.27606271 30549",
    "COMMENT": "Grouped by shell and plane from TLE"
  },
  {
    "OBJECT_NAME": "STARLINK-34055",
    "OBJECT_ID": "25092R",
    "EPOCH": "2025-11-10T21:30:43.820064",
    "MEAN_MOTION": 15.27639702,
    "ECCENTRICITY": 0.0003353,
    "INCLINATION": 43.0031,
    "RA_OF_ASC_NODE": 123.6754,
    "ARG_OF_PERICENTER": 287.5749,
    "MEAN_ANOMALY": 72.4736,
    "EPHEMERIS_TYPE": 0,
    "CLASSIFICATION_TYPE": "U",
    "NORAD_CAT_ID": 63819,
    "ELEMENT_SET_NO": 999,
    "REV_AT_EPOCH": 3044,
    "BSTAR": 0.0013882,
    "MEAN_MOTION_DOT": 0.0003821,
    "MEAN_MOTION_DDOT": 0.0,
    "TLE_LINE1": "1 63819U 25092R   25314.89634051  .00038210  00000+0  13882-2 0  9993",
    "TLE_LINE2": "2 63819  43.0031 123.6754 0003353 287.5749  72.4736 15.27639702 30446",
    "COMMENT": "Grouped by shell and plane from TLE"
  },
  {
    "OBJECT_NAME": "STARLINK-33794",
    "OBJECT_ID": "25092S",
    "EPOCH": "2025-11-10T11:56:33.940320",
    "MEAN_MOTION": 15.27595037,
    "ECCENTRICITY": 0.0001053,
    "INCLINATION": 42.9984,
    "RA_OF_ASC_NODE": 125.8593,
    "ARG_OF_PERICENTER": 265.9984,
    "MEAN_ANOMALY": 94.0747,
    "EPHEMERIS_TYPE": 0,
    "CLASSIFICATION_TYPE": "U",
    "NORAD_CAT_ID": 63820,
    "ELEMENT_SET_NO": 999,
    "REV_AT_EPOCH": 3038,
    "BSTAR": 0.0010617,
    "MEAN_MOTION_DOT": 0.00029083,
    "MEAN_MOTION_DDOT": 0.0,
    "TLE_LINE1": "1 63820U 25092S   25314.49761505  .00029083  00000+0  10617-2 0  9997",
    "TLE_LINE2": "2 63820  42.9984 125.8593 0001053 265.9984  94.0747 15.27595037 30381",
    "COMMENT": "Grouped by shell and plane from TLE"
  },
  {
    "OBJECT_NAME": "STARLINK-34047",
    "OBJECT_ID": "25092T",
    "EPOCH": "2025-11-10T19:41:47.129568",
    "MEAN_MOTION": 15.27607524,
    "ECCENTRICITY": 0.0001703,
    "INCLINATION": 43.0014,
    "RA_OF_ASC_NODE": 123.9848,
    "ARG_OF_PERICENTER": 275.2899,
    "MEAN_ANOMALY": 84.7758,
    "EPHEMERIS_TYPE": 0,
    "CLASSIFICATION_TYPE": "U",
    "NORAD_CAT_ID": 63821,
    "ELEMENT_SET_NO": 999,
    "REV_AT_EPOCH": 3048,
    "BSTAR": 0.0012742,
    "MEAN_MOTION_DOT": 0.00034997,
    "MEAN_MOTION_DDOT": 0.0,
    "TLE_LINE1": "1 63821U 25092T   25314.82068437  .00034997  00000+0  12742-2 0  9990",
    "TLE_LINE2": "2 63821  43.0014 123.9848 0001703 275.2899  84.7758 15.27607524 30485",
    "COMMENT": "Grouped by shell and plane from TLE"
  },
  {
    "OBJECT_NAME": "STARLINK-34025",
    "OBJECT_ID": "25092W",
    "EPOCH": "2025-11-11T04:13:04.092384",
    "MEAN_MOTION": 15.27592578,
    "ECCENTRICITY": 0.0001282,
    "INCLINATION": 42.9993,
    "RA_OF_ASC_NODE": 121.4899,
    "ARG_OF_PERICENTER": 263.4099,
    "MEAN_ANOMALY": 96.6606,
    "EPHEMERIS_TYPE": 0,
    "CLASSIFICATION_TYPE": "U",
    "NORAD_CAT_ID": 63824,
    "ELEMENT_SET_NO": 999,
    "REV_AT_EPOCH": 3043,
    "BSTAR": 0.0011806,
    "MEAN_MOTION_DOT": 0.00032381,
    "MEAN_MOTION_DDOT": 0.0,
    "TLE_LINE1": "1 63824U 25092W   25315.17574181  .00032381  00000+0  11806-2 0  9995",
    "TLE_LINE2": "2 63824  42.9993 121.4899 0001282 263.4099  96.6606 15.27592578 30435",
    "COMMENT": "Grouped by shell and plane from TLE"
  },
  {
    "OBJECT_NAME": "STARLINK-33874",
    "OBJECT_ID": "25092X",
    "EPOCH": "2025-11-10T18:00:14.116896",
    "MEAN_MOTION": 15.27604786,
    "ECCENTRICITY": 7.84e-05,
    "INCLINATION": 43.0007,
    "RA_OF_ASC_NODE": 124.3103,
    "ARG_OF_PERICENTER": 266.894,
    "MEAN_ANOMALY": 93.1822,
    "EPHEMERIS_TYPE": 0,
    "CLASSIFICATION_TYPE": "U",
    "NORAD_CAT_ID": 63825,
    "ELEMENT_SET_NO": 999,
    "REV_AT_EPOCH": 3047,
    "BSTAR": 0.0010947,
    "MEAN_MOTION_DOT": 0.00030007,
    "MEAN_MOTION_DDOT": 0.0,
    "TLE_LINE1": "1 63825U 25092X   25314.75016339  .00030007  00000+0  10947-2 0  9993",
    "TLE_LINE2": "2 63825  43.0007 124.3103 0000784 266.8940  93.1822 15.27604786 30473",
    "COMMENT": "Grouped by shell and plane from TLE"
  },
  {
    "OBJECT_NAME": "STARLINK-33781",
    "OBJECT_ID": "25092Y",
    "EPOCH": "2025-11-11T03:51:04.589856",
    "MEAN_MOTION": 15.27606247,
    "ECCENTRICITY": 7.7e-05,
    "INCLINATION": 42.994,
    "RA_OF_ASC_NODE": 122.2349,
    "ARG_OF_PERICENTER": 265.3013,
    "MEAN_ANOMALY": 94.775,
    "EPHEMERIS_TYPE": 0,
    "CLASSIFICATION_TYPE": "U",
    "NORAD_CAT_ID": 63826,
    "ELEMENT_SET_NO": 999,
    "REV_AT_EPOCH": 3053,
    "BSTAR": 0.00029215,
    "MEAN_MOTION_DOT": 7.792e-05,
    "MEAN_MOTION_DDOT": 0.0,
    "TLE_LINE1": "1 63826U 25092Y   25315.16046979  .00007792  00000+0  29215-3 0  9997",
    "TLE_LINE2": "2 63826  42.9940 122.2349 0000770 265.3013  94.7750 15.27606247 30535",
    "COMMENT": "Grouped by shell and plane from TLE"
  },
  {
    "OBJECT_NAME": "STARLINK-33891",
    "OBJECT_ID": "25092Z",
    "EPOCH": "2025-11-10T20:09:32.721984",
    "MEAN_MOTION": 15.2762087,
    "ECCENTRICITY": 0.0001989,
    "INCLINATION": 42.9997,
    "RA_OF_ASC_NODE": 124.123,
    "ARG_OF_PERICENTER": 277.2923,
    "MEAN_ANOMALY": 82.7702,
    "EPHEMERIS_TYPE": 0,
    "CLASSIFICATION_TYPE": "U",
    "NORAD_CAT_ID": 63827,
    "ELEMENT_SET_NO": 999,
    "REV_AT_EPOCH": 3037,
    "BSTAR": 0.001892,
    "MEAN_MOTION_DOT": 0.00052237,
    "MEAN_MOTION_DDOT": 0.0,
    "TLE_LINE1": "1 63827U 25092Z   25314.83996206  .00052237  00000+0  18920-2 0  9992",
    "TLE_LINE2": "2 63827  42.9997 124.1230 0001989 277.2923  82.7702 15.27620870 30377",
    "COMMENT": "Grouped by shell and plane from TLE"
  },
  {
    "OBJECT_NAME": "STARLINK-33903",
    "OBJECT_ID": "25092AA",
    "EPOCH": "2025-11-10T11:36:12.195936",
    "MEAN_MOTION": 15.27611873,
    "ECCENTRICITY": 0.0001503,
    "INCLINATION": 42.9995,
    "RA_OF_ASC_NODE": 125.7414,
    "ARG_OF_PERICENTER": 264.7867,
    "MEAN_ANOMALY": 95.2814,
    "EPHEMERIS_TYPE": 0,
    "CLASSIFICATION_TYPE": "U",
    "NORAD_CAT_ID": 63828,
    "ELEMENT_SET_NO": 999,
    "REV_AT_EPOCH": 3043,
    "BSTAR": 0.0016577,
    "MEAN_MOTION_DOT": 0.00045682,
    "MEAN_MOTION_DDOT": 0.0,
    "TLE_LINE1": "1 63828U 25092AA  25314.48347449  .00045682  00000+0  16577-2 0  9995",
    "TLE_LINE2": "2 63828  42.9995 125.7414 0001503 264.7867  95.2814 15.27611873 30430",
    "COMMENT": "Grouped by shell and plane from TLE"
  },
  {
    "OBJECT_NAME": "STARLINK-33889",
    "OBJECT_ID": "25092AB",
    "EPOCH": "2025-11-11T04:31:35.042592",
    "MEAN_MOTION": 15.27588464,
    "ECCENTRICITY": 5.08e-05,
    "INCLINATION": 42.9984,
    "RA_OF_ASC_NODE": 121.5907,
    "ARG_OF_PERICENTER": 0.1538,
    "MEAN_ANOMALY": 359.9314,
    "EPHEMERIS_TYPE": 0,
    "CLASSIFICATION_TYPE": "U",
    "NORAD_CAT_ID": 63829,
    "ELEMENT_SET_NO": 999,
    "REV_AT_EPOCH": 3043,
    "BSTAR": 0.0015609999999999999,
    "MEAN_MOTION_DOT": 0.00042954,
    "MEAN_MOTION_DDOT": 0.0,
    "TLE_LINE1": "1 63829U 25092AB  25315.18860003  .00042954  00000+0  15610-2 0  9996",
    "TLE_LINE2": "2 63829  42.9984 121.5907 0000508   0.1538 359.9314 15.27588464 30435",
    "COMMENT": "Grouped by shell and plane from TLE"
  },
  {
    "OBJECT_NAME": "STARLINK-33984",
    "OBJECT_ID": "25092AC",
    "EPOCH": "2025-11-11T04:42:40.059072",
    "MEAN_MOTION": 15.2761154,
    "ECCENTRICITY": 0.0002185,
    "INCLINATION": 43.001,
    "RA_OF_ASC_NODE": 121.6326,
    "ARG_OF_PERICENTER": 290.8686,
    "MEAN_ANOMALY": 69.1932,
    "EPHEMERIS_TYPE": 0,
    "CLASSIFICATION_TYPE": "U",
    "NORAD_CAT_ID": 63830,
    "ELEMENT_SET_NO": 999,
    "REV_AT_EPOCH": 3049,
    "BSTAR": 0.0014183000000000002,
    "MEAN_MOTION_DOT": 0.00039011,
    "MEAN_MOTION_DDOT": 0.0,
    "TLE_LINE1": "1 63830U 25092AC  25315.19629698  .00039011  00000+0  14183-2 0  9996",
    "TLE_LINE2": "2 63830  43.0010 121.6326 0002185 290.8686  69.1932 15.27611540 30494",
    "COMMENT": "Grouped by shell and plane from TLE"
  },
  {
    "OBJECT_NAME": "STARLINK-33940",
    "OBJECT_ID": "25092AD",
    "EPOCH": "2025-11-10T17:58:22.734336",
    "MEAN_MOTION": 15.27633295,
    "ECCENTRICITY": 0.0002352,
    "INCLINATION": 43.002,
    "RA_OF_ASC_NODE": 124.3033,
    "ARG_OF_PERICENTER": 281.6995,
    "MEAN_ANOMALY": 78.3592,
    "EPHEMERIS_TYPE": 0,
    "CLASSIFICATION_TYPE": "U",
    "NORAD_CAT_ID": 63831,
    "ELEMENT_SET_NO": 999,
    "REV_AT_EPOCH": 3047,
    "BSTAR": 0.0018417,
    "MEAN_MOTION_DOT": 0.00050852,
    "MEAN_MOTION_DDOT": 0.0,
    "TLE_LINE1": "1 63831U 25092AD  25314.74887424  .00050852  00000+0  18417-2 0  9990",
    "TLE_LINE2": "2 63831  43.0020 124.3033 0002352 281.6995  78.3592 15.27633295 30471",
    "COMMENT": "Grouped by shell and plane from TLE"
  },
  {
    "OBJECT_NAME": "STARLINK-33978",
    "OBJECT_ID": "25092AE",
    "EPOCH": "2025-11-10T12:53:42.266400",
    "MEAN_MOTION": 15.27619902,
    "ECCENTRICITY": 0.0002241,
    "INCLINATION": 43.0055,
    "RA_OF_ASC_NODE": 125.3016,
    "ARG_OF_PERICENTER": 281.5596,
    "MEAN_ANOMALY": 78.5004,
    "EPHEMERIS_TYPE": 0,
    "CLASSIFICATION_TYPE": "U",
    "NORAD_CAT_ID": 63832,
    "ELEMENT_SET_NO": 999,
    "REV_AT_EPOCH": 3044,
    "BSTAR": 0.0017509,
    "MEAN_MOTION_DOT": 0.00048295,
    "MEAN_MOTION_DDOT": 0.0,
    "TLE_LINE1": "1 63832U 25092AE  25314.53729475  .00048295  00000+0  17509-2 0  9998",
    "TLE_LINE2": "2 63832  43.0055 125.3016 0002241 281.5596  78.5004 15.27619902 30441",
    "COMMENT": "Grouped by shell and plane from TLE"
  }
]